TERRASAR-X              
1 31698U 07026A   17345.64085421  .00001634  00000-0  80983-4 0  9998
2 31698  97.4457 350.7749 0001707  74.3187  59.9237 15.19156267581816
